{
  "type": "FeatureCollection",
  "features": [
    {
      "type": "Feature",
      "properties": {
        "norad_id": 66587,
        "name": "CZ-3B R/B",
        "group": "last-30-days",
        "lat": 45.10099847802426,
        "lon": -63.43133854938505,
        "alt_km": 9999.652822031698,
        "timestamp": "2025-12-10T05:46:12.575869+00:00",
        "meta_object_name": "CZ-3B R/B",
        "meta_object_id": "2025-269B",
        "meta_epoch": "2025-12-08T20:16:41.011104",
        "meta_mean_motion": 2.02868797,
        "meta_eccentricity": 0.7519772,
        "meta_inclination": 51.3469,
        "meta_ra_of_asc_node": 170.5472,
        "meta_arg_of_pericenter": 228.0184,
        "meta_mean_anomaly": 37.9661,
        "meta_ephemeris_type": 0,
        "meta_classification_type": "U",
        "meta_norad_cat_id": 66587,
        "meta_element_set_no": 999,
        "meta_rev_at_epoch": 37,
        "meta_bstar": 0.0012608,
        "meta_mean_motion_dot": 0.00050405,
        "meta_mean_motion_ddot": 4.221e-07,
        "tle_line1": "1 66587U 25269B   25342.84491911  .00050405  42210-6  12608-2 0  9997",
        "tle_line2": "2 66587  51.3469 170.5472 7519772 228.0184  37.9661  2.02868797   372"
      },
      "geometry": {
        "type": "Point",
        "coordinates": [
          -63.43133854938505,
          45.10099847802426
        ]
      }
    },
    {
      "type": "Feature",
      "properties": {
        "norad_id": 66588,
        "name": "STARLINK-36076",
        "group": "last-30-days",
        "lat": 42.51820416222644,
        "lon": -52.37944209971533,
        "alt_km": 403.5940255448604,
        "timestamp": "2025-12-10T05:46:12.575886+00:00",
        "meta_object_name": "STARLINK-36076",
        "meta_object_id": "2025-270A",
        "meta_epoch": "2025-12-09T20:00:01.999008",
        "meta_mean_motion": 15.5444032,
        "meta_eccentricity": 0.0001621,
        "meta_inclination": 42.9992,
        "meta_ra_of_asc_node": 209.7509,
        "meta_arg_of_pericenter": 262.0326,
        "meta_mean_anomaly": 76.1969,
        "meta_ephemeris_type": 0,
        "meta_classification_type": "U",
        "meta_norad_cat_id": 66588,
        "meta_element_set_no": 999,
        "meta_rev_at_epoch": 393,
        "meta_bstar": -0.034807,
        "meta_mean_motion_dot": -0.02089108,
        "meta_mean_motion_ddot": 0,
        "tle_line1": "1 66588U 25270A   25343.83335647 -.02089108  00000+0 -34807-1 0  9997",
        "tle_line2": "2 66588  42.9992 209.7509 0001621 262.0326  76.1969 15.54440320  3934"
      },
      "geometry": {
        "type": "Point",
        "coordinates": [
          -52.37944209971533,
          42.51820416222644
        ]
      }
    },
    {
      "type": "Feature",
      "properties": {
        "norad_id": 66589,
        "name": "STARLINK-35447",
        "group": "last-30-days",
        "lat": 41.93745736803978,
        "lon": -47.2652984103799,
        "alt_km": 403.67443924738745,
        "timestamp": "2025-12-10T05:46:12.575896+00:00",
        "meta_object_name": "STARLINK-35447",
        "meta_object_id": "2025-270B",
        "meta_epoch": "2025-12-09T20:00:01.999008",
        "meta_mean_motion": 15.54434386,
        "meta_eccentricity": 0.000164,
        "meta_inclination": 42.9993,
        "meta_ra_of_asc_node": 209.7411,
        "meta_arg_of_pericenter": 262.474,
        "meta_mean_anomaly": 79.5937,
        "meta_ephemeris_type": 0,
        "meta_classification_type": "U",
        "meta_norad_cat_id": 66589,
        "meta_element_set_no": 999,
        "meta_rev_at_epoch": 404,
        "meta_bstar": -0.034702,
        "meta_mean_motion_dot": -0.02083102,
        "meta_mean_motion_ddot": 0,
        "tle_line1": "1 66589U 25270B   25343.83335647 -.02083102  00000+0 -34702-1 0  9990",
        "tle_line2": "2 66589  42.9993 209.7411 0001640 262.4740  79.5937 15.54434386  4043"
      },
      "geometry": {
        "type": "Point",
        "coordinates": [
          -47.2652984103799,
          41.93745736803978
        ]
      }
    },
    {
      "type": "Feature",
      "properties": {
        "norad_id": 66590,
        "name": "STARLINK-35429",
        "group": "last-30-days",
        "lat": 42.25612241858692,
        "lon": -49.80893556674684,
        "alt_km": 403.62362813808613,
        "timestamp": "2025-12-10T05:46:12.575908+00:00",
        "meta_object_name": "STARLINK-35429",
        "meta_object_id": "2025-270C",
        "meta_epoch": "2025-12-09T20:00:01.999008",
        "meta_mean_motion": 15.54434888,
        "meta_eccentricity": 0.0001603,
        "meta_inclination": 42.9992,
        "meta_ra_of_asc_node": 209.7461,
        "meta_arg_of_pericenter": 263.5944,
        "meta_mean_anomaly": 76.5572,
        "meta_ephemeris_type": 0,
        "meta_classification_type": "U",
        "meta_norad_cat_id": 66590,
        "meta_element_set_no": 999,
        "meta_rev_at_epoch": 404,
        "meta_bstar": -0.034729,
        "meta_mean_motion_dot": -0.02084538,
        "meta_mean_motion_ddot": 0,
        "tle_line1": "1 66590U 25270C   25343.83335647 -.02084538  00000+0 -34729-1 0  9995",
        "tle_line2": "2 66590  42.9992 209.7461 0001603 263.5944  76.5572 15.54434888  4045"
      },
      "geometry": {
        "type": "Point",
        "coordinates": [
          -49.80893556674684,
          42.25612241858692
        ]
      }
    },
    {
      "type": "Feature",
      "properties": {
        "norad_id": 66591,
        "name": "STARLINK-36058",
        "group": "last-30-days",
        "lat": 41.56260228966848,
        "lon": -44.7475208279032,
        "alt_km": 403.6145475803469,
        "timestamp": "2025-12-10T05:46:12.575918+00:00",
        "meta_object_name": "STARLINK-36058",
        "meta_object_id": "2025-270D",
        "meta_epoch": "2025-12-09T20:00:01.999008",
        "meta_mean_motion": 15.54431983,
        "meta_eccentricity": 0.0001505,
        "meta_inclination": 42.9992,
        "meta_ra_of_asc_node": 209.7364,
        "meta_arg_of_pericenter": 261.6752,
        "meta_mean_anomaly": 82.3092,
        "meta_ephemeris_type": 0,
        "meta_classification_type": "U",
        "meta_norad_cat_id": 66591,
        "meta_element_set_no": 999,
        "meta_rev_at_epoch": 393,
        "meta_bstar": -0.034613,
        "meta_mean_motion_dot": -0.02078079,
        "meta_mean_motion_ddot": 0,
        "tle_line1": "1 66591U 25270D   25343.83335647 -.02078079  00000+0 -34613-1 0  9991",
        "tle_line2": "2 66591  42.9992 209.7364 0001505 261.6752  82.3092 15.54431983  3937"
      },
      "geometry": {
        "type": "Point",
        "coordinates": [
          -44.7475208279032,
          41.56260228966848
        ]
      }
    },
    {
      "type": "Feature",
      "properties": {
        "norad_id": 66592,
        "name": "STARLINK-36066",
        "group": "last-30-days",
        "lat": 41.13277010879815,
        "lon": -42.25737320310012,
        "alt_km": 403.73976914570176,
        "timestamp": "2025-12-10T05:46:12.575928+00:00",
        "meta_object_name": "STARLINK-36066",
        "meta_object_id": "2025-270E",
        "meta_epoch": "2025-12-09T20:00:01.999008",
        "meta_mean_motion": 15.54434923,
        "meta_eccentricity": 0.0001555,
        "meta_inclination": 42.9992,
        "meta_ra_of_asc_node": 209.7319,
        "meta_arg_of_pericenter": 265.3208,
        "meta_mean_anomaly": 80.5821,
        "meta_ephemeris_type": 0,
        "meta_classification_type": "U",
        "meta_norad_cat_id": 66592,
        "meta_element_set_no": 999,
        "meta_rev_at_epoch": 383,
        "meta_bstar": -0.03473,
        "meta_mean_motion_dot": -0.02084554,
        "meta_mean_motion_ddot": 0,
        "tle_line1": "1 66592U 25270E   25343.83335647 -.02084554  00000+0 -34730-1 0  9997",
        "tle_line2": "2 66592  42.9992 209.7319 0001555 265.3208  80.5821 15.54434923  3836"
      },
      "geometry": {
        "type": "Point",
        "coordinates": [
          -42.25737320310012,
          41.13277010879815
        ]
      }
    },
    {
      "type": "Feature",
      "properties": {
        "norad_id": 66593,
        "name": "STARLINK-36031",
        "group": "last-30-days",
        "lat": 40.651581936158074,
        "lon": -39.81048204068128,
        "alt_km": 403.73880941809875,
        "timestamp": "2025-12-10T05:46:12.575938+00:00",
        "meta_object_name": "STARLINK-36031",
        "meta_object_id": "2025-270F",
        "meta_epoch": "2025-12-09T20:00:01.999008",
        "meta_mean_motion": 15.54434962,
        "meta_eccentricity": 0.0001571,
        "meta_inclination": 42.9992,
        "meta_ra_of_asc_node": 209.7269,
        "meta_arg_of_pericenter": 258.8108,
        "meta_mean_anomaly": 89.0066,
        "meta_ephemeris_type": 0,
        "meta_classification_type": "U",
        "meta_norad_cat_id": 66593,
        "meta_element_set_no": 999,
        "meta_rev_at_epoch": 393,
        "meta_bstar": -0.034702,
        "meta_mean_motion_dot": -0.02083067,
        "meta_mean_motion_ddot": 0,
        "tle_line1": "1 66593U 25270F   25343.83335647 -.02083067  00000+0 -34702-1 0  9995",
        "tle_line2": "2 66593  42.9992 209.7269 0001571 258.8108  89.0066 15.54434962  3934"
      },
      "geometry": {
        "type": "Point",
        "coordinates": [
          -39.81048204068128,
          40.651581936158074
        ]
      }
    }
  ]
}